CZ-2C R/B               
1 54039U 22132E   26058.95042925  .00043802  00000+0  51828-3 0  9991
2 54039  97.2965  61.9793 0020610 122.3536 237.9720 15.60890575188853
GSLV R/B                
1 54149U 22138AN  26059.02648267  .00003579  00000+0  30980-3 0  9992
2 54149  87.3878 169.5957 0021647 180.4073 179.7144 14.96688855182487
XRISM                   
1 57800U 23137A   26059.13083947  .00006227  00000+0  35428-3 0  9994
2 57800  31.0035 345.4840 0008246 302.8002  57.1842 15.11364518136346
ACS3                    
1 59588U 24077B   26058.84767936  .00021978  00000+0  17873-1 0  9999
2 59588  97.2118   2.1724 0053201 103.7827 256.9265 13.89124060 92831
SZ-21 MODULE            
1 66515U 25246C   26058.62877085  .00034956  00000+0  31215-3 0  9997
2 66515  41.4741 265.2557 0001443 287.0707  72.9977 15.67676592 16496
