CCSDS_OMM_VERS = 2.0
CREATION_DATE  = 
ORIGINATOR     = 

OBJECT_NAME    = CZ-2C R/B
OBJECT_ID      = 2022-132E
CENTER_NAME    = EARTH
REF_FRAME      = TEME
TIME_SYSTEM    = UTC
MEAN_ELEMENT_THEORY = SGP/SGP4

EPOCH          = 2026-02-27T22:48:37.087200
MEAN_MOTION    = 15.60890575
ECCENTRICITY   = .002061
INCLINATION    = 97.2965
RA_OF_ASC_NODE = 61.9793
ARG_OF_PERICENTER = 122.3536
MEAN_ANOMALY   = 237.9720

EPHEMERIS_TYPE = 0
CLASSIFICATION_TYPE = U
NORAD_CAT_ID   = 54039
ELEMENT_SET_NO = 999
REV_AT_EPOCH   = 18885
BSTAR          = .51828E-3
MEAN_MOTION_DOT = .43802E-3
MEAN_MOTION_DDOT = 0

CCSDS_OMM_VERS = 2.0
CREATION_DATE  = 
ORIGINATOR     = 

OBJECT_NAME    = GSLV R/B
OBJECT_ID      = 2022-138AN
CENTER_NAME    = EARTH
REF_FRAME      = TEME
TIME_SYSTEM    = UTC
MEAN_ELEMENT_THEORY = SGP/SGP4

EPOCH          = 2026-02-28T00:38:08.102688
MEAN_MOTION    = 14.96688855
ECCENTRICITY   = .0021647
INCLINATION    = 87.3878
RA_OF_ASC_NODE = 169.5957
ARG_OF_PERICENTER = 180.4073
MEAN_ANOMALY   = 179.7144

EPHEMERIS_TYPE = 0
CLASSIFICATION_TYPE = U
NORAD_CAT_ID   = 54149
ELEMENT_SET_NO = 999
REV_AT_EPOCH   = 18248
BSTAR          = .3098E-3
MEAN_MOTION_DOT = .3579E-4
MEAN_MOTION_DDOT = 0

CCSDS_OMM_VERS = 2.0
CREATION_DATE  = 
ORIGINATOR     = 

OBJECT_NAME    = XRISM
OBJECT_ID      = 2023-137A
CENTER_NAME    = EARTH
REF_FRAME      = TEME
TIME_SYSTEM    = UTC
MEAN_ELEMENT_THEORY = SGP/SGP4

EPOCH          = 2026-02-28T03:08:24.530208
MEAN_MOTION    = 15.11364518
ECCENTRICITY   = .0008246
INCLINATION    = 31.0035
RA_OF_ASC_NODE = 345.4840
ARG_OF_PERICENTER = 302.8002
MEAN_ANOMALY   = 57.1842

EPHEMERIS_TYPE = 0
CLASSIFICATION_TYPE = U
NORAD_CAT_ID   = 57800
ELEMENT_SET_NO = 999
REV_AT_EPOCH   = 13634
BSTAR          = .35428E-3
MEAN_MOTION_DOT = .6227E-4
MEAN_MOTION_DDOT = 0

CCSDS_OMM_VERS = 2.0
CREATION_DATE  = 
ORIGINATOR     = 

OBJECT_NAME    = ACS3
OBJECT_ID      = 2024-077B
CENTER_NAME    = EARTH
REF_FRAME      = TEME
TIME_SYSTEM    = UTC
MEAN_ELEMENT_THEORY = SGP/SGP4

EPOCH          = 2026-02-27T20:20:39.496704
MEAN_MOTION    = 13.89124060
ECCENTRICITY   = .00532017
INCLINATION    = 97.2118
RA_OF_ASC_NODE = 2.1724
ARG_OF_PERICENTER = 103.7827
MEAN_ANOMALY   = 256.9265

EPHEMERIS_TYPE = 0
CLASSIFICATION_TYPE = U
NORAD_CAT_ID   = 59588
ELEMENT_SET_NO = 999
REV_AT_EPOCH   = 9283
BSTAR          = .1787324E-1
MEAN_MOTION_DOT = .21978E-3
MEAN_MOTION_DDOT = 0

CCSDS_OMM_VERS = 2.0
CREATION_DATE  = 
ORIGINATOR     = 

OBJECT_NAME    = SZ-21 MODULE
OBJECT_ID      = 2025-246C
CENTER_NAME    = EARTH
REF_FRAME      = TEME
TIME_SYSTEM    = UTC
MEAN_ELEMENT_THEORY = SGP/SGP4

EPOCH          = 2026-02-27T15:05:25.801440
MEAN_MOTION    = 15.67676592
ECCENTRICITY   = .00014439
INCLINATION    = 41.4741
RA_OF_ASC_NODE = 265.2557
ARG_OF_PERICENTER = 287.0707
MEAN_ANOMALY   = 72.9977

EPHEMERIS_TYPE = 0
CLASSIFICATION_TYPE = U
NORAD_CAT_ID   = 66515
ELEMENT_SET_NO = 999
REV_AT_EPOCH   = 1649
BSTAR          = .31215352E-3
MEAN_MOTION_DOT = .34956E-3
MEAN_MOTION_DDOT = 0

